[{"OBJECT_NAME":"STARLINK-32194","OBJECT_ID":"2024-133Q","EPOCH":"2026-03-09T21:48:13.315680","MEAN_MOTION":15.3019564,"ECCENTRICITY":0.00012807,"INCLINATION":53.1585,"RA_OF_ASC_NODE":296.0588,"ARG_OF_PERICENTER":91.1943,"MEAN_ANOMALY":268.9205,"EPHEMERIS_TYPE":0,"CLASSIFICATION_TYPE":"U","NORAD_CAT_ID":60315,"ELEMENT_SET_NO":999,"REV_AT_EPOCH":9167,"BSTAR":0.00012788718,"MEAN_MOTION_DOT":3.43e-5,"MEAN_MOTION_DDOT":0},{"OBJECT_NAME":"ARIANE 40 R\/B","OBJECT_ID":"1999-064C","EPOCH":"2026-03-09T18:24:37.025280","MEAN_MOTION":15.31364882,"ECCENTRICITY":0.00050095,"INCLINATION":98.1631,"RA_OF_ASC_NODE":150.8872,"ARG_OF_PERICENTER":91.4057,"MEAN_ANOMALY":268.7755,"EPHEMERIS_TYPE":0,"CLASSIFICATION_TYPE":"U","NORAD_CAT_ID":25979,"ELEMENT_SET_NO":999,"REV_AT_EPOCH":42869,"BSTAR":0.00066758353,"MEAN_MOTION_DOT":0.00020173,"MEAN_MOTION_DDOT":0}]
